{
  "type": "FeatureCollection",
  "features": [
    {
      "type": "Feature",
      "properties": {
        "norad_id": 37331,
        "name": "COSMOS 2251 DEB",
        "group": "cosmos-2251-debris",
        "lat": 52.68986135546618,
        "lon": 64.29800626278427,
        "alt_km": 730.0983827534301,
        "timestamp": "2025-12-26T17:24:55.117179+00:00",
        "meta_object_name": "COSMOS 2251 DEB",
        "meta_object_id": "1993-036BKX",
        "meta_epoch": "2025-12-24T11:37:12.375264",
        "meta_mean_motion": 14.35050755,
        "meta_eccentricity": 0.00553191,
        "meta_inclination": 74.0736,
        "meta_ra_of_asc_node": 46.3907,
        "meta_arg_of_pericenter": 56.9806,
        "meta_mean_anomaly": 303.6644,
        "meta_ephemeris_type": 0,
        "meta_classification_type": "U",
        "meta_norad_cat_id": 37331,
        "meta_element_set_no": 999,
        "meta_rev_at_epoch": 84928,
        "meta_bstar": 0.00040764009,
        "meta_mean_motion_dot": 1.157e-05,
        "meta_mean_motion_ddot": 0,
        "tle_line1": "1 37331U 93036BKX 25358.48417101  .00001157  00000+0  40764-3 0  9994",
        "tle_line2": "2 37331  74.0736  46.3907 0055319  56.9806 303.6644 14.35050755849284"
      },
      "geometry": {
        "type": "Point",
        "coordinates": [
          64.29800626278427,
          52.68986135546618
        ]
      }
    },
    {
      "type": "Feature",
      "properties": {
        "norad_id": 37336,
        "name": "COSMOS 2251 DEB",
        "group": "cosmos-2251-debris",
        "lat": -70.46013934167831,
        "lon": -108.04650430155937,
        "alt_km": 792.3765779599071,
        "timestamp": "2025-12-26T17:24:55.117189+00:00",
        "meta_object_name": "COSMOS 2251 DEB",
        "meta_object_id": "1993-036BLC",
        "meta_epoch": "2025-12-17T07:33:13.175712",
        "meta_mean_motion": 14.32760586,
        "meta_eccentricity": 0.00290162,
        "meta_inclination": 74.0414,
        "meta_ra_of_asc_node": 322.8603,
        "meta_arg_of_pericenter": 39.1846,
        "meta_mean_anomaly": 321.1399,
        "meta_ephemeris_type": 0,
        "meta_classification_type": "U",
        "meta_norad_cat_id": 37336,
        "meta_element_set_no": 999,
        "meta_rev_at_epoch": 65185,
        "meta_bstar": 6.9199726e-05,
        "meta_mean_motion_dot": 1.63e-06,
        "meta_mean_motion_ddot": 0,
        "tle_line1": "1 37336U 93036BLC 25351.31473583  .00000163  00000+0  69200-4 0  9993",
        "tle_line2": "2 37336  74.0414 322.8603 0029016  39.1846 321.1399 14.32760586651852"
      },
      "geometry": {
        "type": "Point",
        "coordinates": [
          -108.04650430155937,
          -70.46013934167831
        ]
      }
    },
    {
      "type": "Feature",
      "properties": {
        "norad_id": 37340,
        "name": "COSMOS 2251 DEB",
        "group": "cosmos-2251-debris",
        "lat": -8.025844289829257,
        "lon": -110.88927300363078,
        "alt_km": 759.2392755315568,
        "timestamp": "2025-12-26T17:24:55.117199+00:00",
        "meta_object_name": "COSMOS 2251 DEB",
        "meta_object_id": "1993-036BLG",
        "meta_epoch": "2025-12-26T00:44:42.186048",
        "meta_mean_motion": 14.36937733,
        "meta_eccentricity": 0.00183659,
        "meta_inclination": 74.025,
        "meta_ra_of_asc_node": 252.703,
        "meta_arg_of_pericenter": 344.8671,
        "meta_mean_anomaly": 15.193,
        "meta_ephemeris_type": 0,
        "meta_classification_type": "U",
        "meta_norad_cat_id": 37340,
        "meta_element_set_no": 999,
        "meta_rev_at_epoch": 84258,
        "meta_bstar": 0.00016722421,
        "meta_mean_motion_dot": 4.7e-06,
        "meta_mean_motion_ddot": 0,
        "tle_line1": "1 37340U 93036BLG 25360.03104382  .00000470  00000+0  16722-3 0  9996",
        "tle_line2": "2 37340  74.0250 252.7030 0018365 344.8671  15.1930 14.36937733842584"
      },
      "geometry": {
        "type": "Point",
        "coordinates": [
          -110.88927300363078,
          -8.025844289829257
        ]
      }
    },
    {
      "type": "Feature",
      "properties": {
        "norad_id": 37483,
        "name": "COSMOS 2251 DEB",
        "group": "cosmos-2251-debris",
        "lat": 70.74305685788298,
        "lon": 172.60263981728926,
        "alt_km": 770.9998655740965,
        "timestamp": "2025-12-26T17:24:55.117209+00:00",
        "meta_object_name": "COSMOS 2251 DEB",
        "meta_object_id": "1993-036BLL",
        "meta_epoch": "2025-12-24T01:50:58.185312",
        "meta_mean_motion": 14.43572585,
        "meta_eccentricity": 0.00936557,
        "meta_inclination": 73.9741,
        "meta_ra_of_asc_node": 122.1834,
        "meta_arg_of_pericenter": 326.1341,
        "meta_mean_anomaly": 33.3856,
        "meta_ephemeris_type": 0,
        "meta_classification_type": "U",
        "meta_norad_cat_id": 37483,
        "meta_element_set_no": 999,
        "meta_rev_at_epoch": 65443,
        "meta_bstar": 0.00020999686,
        "meta_mean_motion_dot": 7.21e-06,
        "meta_mean_motion_ddot": 0,
        "tle_line1": "1 37483U 93036BLL 25358.07706233  .00000721  00000+0  21000-3 0  9992",
        "tle_line2": "2 37483  73.9741 122.1834 0093655 326.1341  33.3856 14.43572585654431"
      },
      "geometry": {
        "type": "Point",
        "coordinates": [
          172.60263981728926,
          70.74305685788298
        ]
      }
    },
    {
      "type": "Feature",
      "properties": {
        "norad_id": 37484,
        "name": "COSMOS 2251 DEB",
        "group": "cosmos-2251-debris",
        "lat": -55.852697015758736,
        "lon": 27.526243250186386,
        "alt_km": 733.5512949736731,
        "timestamp": "2025-12-26T17:24:55.117219+00:00",
        "meta_object_name": "COSMOS 2251 DEB",
        "meta_object_id": "1993-036BLM",
        "meta_epoch": "2025-12-23T22:01:02.179776",
        "meta_mean_motion": 14.41832075,
        "meta_eccentricity": 0.0039304,
        "meta_inclination": 73.821,
        "meta_ra_of_asc_node": 187.4539,
        "meta_arg_of_pericenter": 220.8433,
        "meta_mean_anomaly": 207.6544,
        "meta_ephemeris_type": 0,
        "meta_classification_type": "U",
        "meta_norad_cat_id": 37484,
        "meta_element_set_no": 999,
        "meta_rev_at_epoch": 65540,
        "meta_bstar": 0.00075175,
        "meta_mean_motion_dot": 2.453e-05,
        "meta_mean_motion_ddot": 0,
        "tle_line1": "1 37484U 93036BLM 25357.91738634  .00002453  00000+0  75175-3 0  9991",
        "tle_line2": "2 37484  73.8210 187.4539 0039304 220.8433 207.6544 14.41832075655400"
      },
      "geometry": {
        "type": "Point",
        "coordinates": [
          27.526243250186386,
          -55.852697015758736
        ]
      }
    },
    {
      "type": "Feature",
      "properties": {
        "norad_id": 37486,
        "name": "COSMOS 2251 DEB",
        "group": "cosmos-2251-debris",
        "lat": 30.649422311807676,
        "lon": -100.67733042752987,
        "alt_km": 1008.3894935450744,
        "timestamp": "2025-12-26T17:24:55.117229+00:00",
        "meta_object_name": "COSMOS 2251 DEB",
        "meta_object_id": "1993-036BLP",
        "meta_epoch": "2025-12-25T00:47:37.338720",
        "meta_mean_motion": 14.13431538,
        "meta_eccentricity": 0.02312079,
        "meta_inclination": 73.6929,
        "meta_ra_of_asc_node": 92.3714,
        "meta_arg_of_pericenter": 318.5034,
        "meta_mean_anomaly": 220.7861,
        "meta_ephemeris_type": 0,
        "meta_classification_type": "U",
        "meta_norad_cat_id": 37486,
        "meta_element_set_no": 999,
        "meta_rev_at_epoch": 63543,
        "meta_bstar": 0.0021109743,
        "meta_mean_motion_dot": 5.095e-05,
        "meta_mean_motion_ddot": 0,
        "tle_line1": "1 37486U 93036BLP 25359.03307105  .00005095  00000+0  21110-2 0  9997",
        "tle_line2": "2 37486  73.6929  92.3714 0231207 318.5034 220.7861 14.13431538635431"
      },
      "geometry": {
        "type": "Point",
        "coordinates": [
          -100.67733042752987,
          30.649422311807676
        ]
      }
    },
    {
      "type": "Feature",
      "properties": {
        "norad_id": 37487,
        "name": "COSMOS 2251 DEB",
        "group": "cosmos-2251-debris",
        "lat": 53.70909791367572,
        "lon": -172.58039879687018,
        "alt_km": 609.0914697354501,
        "timestamp": "2025-12-26T17:24:55.117238+00:00",
        "meta_object_name": "COSMOS 2251 DEB",
        "meta_object_id": "1993-036BLQ",
        "meta_epoch": "2025-12-24T05:11:49.367040",
        "meta_mean_motion": 14.81463002,
        "meta_eccentricity": 0.00266054,
        "meta_inclination": 73.9017,
        "meta_ra_of_asc_node": 169.2533,
        "meta_arg_of_pericenter": 4.3349,
        "meta_mean_anomaly": 355.8052,
        "meta_ephemeris_type": 0,
        "meta_classification_type": "U",
        "meta_norad_cat_id": 37487,
        "meta_element_set_no": 999,
        "meta_rev_at_epoch": 81415,
        "meta_bstar": 0.0032114426,
        "meta_mean_motion_dot": 0.00025372,
        "meta_mean_motion_ddot": 0,
        "tle_line1": "1 37487U 93036BLQ 25358.21654360  .00025372  00000+0  32114-2 0  9991",
        "tle_line2": "2 37487  73.9017 169.2533 0026605   4.3349 355.8052 14.81463002814155"
      },
      "geometry": {
        "type": "Point",
        "coordinates": [
          -172.58039879687018,
          53.70909791367572
        ]
      }
    }
  ]
}